IRIDIUM 64 [+]          
1 25287U 98021C   16215.45411706  .00000063  00000-0  15319-4 0  9999
2 25287  86.3978 357.1915 0002181  97.0459 263.0985 14.34214084959315
IRIDIUM 65 [+]          
1 25288U 98021D   16215.46046668  .00000069  00000-0  17679-4 0  9999
2 25288  86.3976 357.0980 0002042  90.5280 269.6149 14.34213702959333
IRIDIUM 66 [+]          
1 25289U 98021E   16215.47907079  .00000004  00000-0 -55040-5 0  9998
2 25289  86.3976 356.9963 0002141  90.7605 332.6860 14.34214079959335
IRIDIUM 67 [+]          
1 25290U 98021F   16215.47315034  .00000004  00000-0 -55163-5 0  9990
2 25290  86.3976 357.1303 0002166  92.6664 267.4780 14.34213685959340
IRIDIUM 68 [+]          
1 25291U 98021G   16215.47949783  .00000066  00000-0  16657-4 0  9996
2 25291  86.3979 357.2404 0002214  90.4549 269.6901 14.34213855959314
IRIDIUM 69 [-]          
1 25319U 98026A   16215.55354241  .00000066  00000-0  14988-4 0  9995
2 25319  86.3987  19.7621 0001048 150.1012 210.0247 14.38604376957225
IRIDIUM 71 [-]          
1 25320U 98026B   16215.49623290  .00000089  00000-0  22524-4 0  9993
2 25320  86.3973  15.8295 0001519  27.5424 332.5854 14.39018240957632
IRIDIUM 70 [+]          
1 25342U 98032A   16215.44614852  .00000005  00000-0 -52967-5 0  9997
2 25342  86.3982 357.4809 0002126  89.6685 327.5640 14.34213802953410
IRIDIUM 72 [+]          
1 25343U 98032B   16215.50534118  .00000004  00000-0 -54834-5 0  9995
2 25343  86.3977 357.0890 0002139  91.6971 336.3870 14.34213871953426
IRIDIUM 73 [-]          
1 25344U 98032C   16215.44327692  .00000094  00000-0  19390-4 0  9991
2 25344  86.4454 337.6373 0002850  83.3887 276.7641 14.48956225961392
IRIDIUM 74 [S]          
1 25345U 98032D   16215.50198870  .00000078  00000-0  17278-4 0  9998
2 25345  86.4488 357.4305 0002160  97.3415 329.8046 14.42948282956796
IRIDIUM 75 [+]          
1 25346U 98032E   16215.51171685  .00000004  00000-0 -54597-5 0  9991
2 25346  86.3980 357.3272 0002154  93.1135 335.1558 14.34214012953996
IRIDIUM 3 [+]           
1 25431U 98048A   16215.56494836 -.00000038  00000-0 -20666-4 0  9991
2 25431  86.3947  28.9045 0001999  82.4768 341.5097 14.34215777939949
IRIDIUM 76 [+]          
1 25432U 98048B   16215.51200435 -.00000038  00000-0 -20588-4 0  9990
2 25432  86.3944  28.6912 0002184  83.3884 329.2213 14.34215668939923
IRIDIUM 82 [+]          
1 25467U 98051A   16215.40131013  .00000164  00000-0  51407-4 0  9997
2 25467  86.4032 155.4368 0002057  88.0123 272.1308 14.34219727940924
IRIDIUM 81 [+]          
1 25468U 98051B   16215.39497720  .00000133  00000-0  40521-4 0  9997
2 25468  86.4005 155.0503 0002335  85.3726 274.7737 14.34213323937140
IRIDIUM 80 [+]          
1 25469U 98051C   16215.53288021  .00000130  00000-0  39412-4 0  9990
2 25469  86.4008 155.2640 0002432  87.1235   2.8195 14.34213756937161
IRIDIUM 77 [+]          
1 25471U 98051E   16215.47836395  .00000020  00000-0  17924-6 0  9993
2 25471  86.4000 154.8872 0002353  82.0004  53.9177 14.34213720942353
IRIDIUM 2 [-]           
1 25527U 98066A   16215.51333961  .00000959  00000-0  48737-4 0  9992
2 25527  85.5294 220.1698 0009851 166.5566 193.5937 15.15434989969596
IRIDIUM 86 [+]          
1 25528U 98066B   16215.41059744  .00000179  00000-0  56908-4 0  9999
2 25528  86.3980 123.1100 0002138  78.0639 282.0796 14.34218197933675
IRIDIUM 84 [+]          
1 25530U 98066D   16215.30277639  .00000185  00000-0  59040-4 0  9992
2 25530  86.3982 123.3145 0002268  84.3075 275.8379 14.34218140931290
IRIDIUM 83 [+]          
1 25531U 98066E   16215.47402334  .00000177  00000-0  56049-4 0  9990
2 25531  86.3985 123.3554 0002281  84.1229 276.0227 14.34218327928672
IRIDIUM 20 [+]          
1 25577U 98074A   16215.53354920 -.00000037  00000-0 -20254-4 0  9999
2 25577  86.3943  28.6079 0002025  85.2343 274.9084 14.34215714922769
IRIDIUM 11 [+]          
1 25578U 98074B   16215.55830564  .00000016  00000-0 -14797-5 0  9997
2 25578  86.3943  28.8020 0002024  90.6379 331.7837 14.34215886931731
IRIDIUM 14 [+]          
1 25777U 99032A   16215.45926744  .00000067  00000-0  17019-4 0  9992
2 25777  86.3978 357.1843 0002067  88.8698 330.4053 14.34214336908998
IRIDIUM 21 [+]          
1 25778U 99032B   16215.48580998  .00000069  00000-0  17646-4 0  9991
2 25778  86.3978 357.1961 0002312  92.6194 267.5266 14.34214158902438
IRIDIUM 91 [+]          
1 27372U 02005A   16215.53576126  .00000032  00000-0  44024-5 0  9992
2 27372  86.3944  61.0284 0002072  91.9360 327.6048 14.34217194765955
IRIDIUM 90 [S]          
1 27373U 02005B   16215.33536083  .00000209  00000-0  56386-4 0  9998
2 27373  86.4495 123.3855 0002346  79.5290 280.6175 14.42946417765373
IRIDIUM 94 [+]          
1 27374U 02005C   16215.57804896 -.00000079  00000-0 -35165-4 0  9994
2 27374  86.3943  28.9166 0002627  68.5785 357.5882 14.34214489770288
IRIDIUM 95 [+]          
1 27375U 02005D   16215.56232225 -.00000039  00000-0 -21000-4 0  9994
2 27375  86.3944  60.7992 0002167  80.9953 279.1488 14.34216632765248
IRIDIUM 96 [+]          
1 27376U 02005E   16215.26129851  .00000149  00000-0  46301-4 0  9993
2 27376  86.3983  92.4560 0003523  89.3877 270.7722 14.34214686770409
IRIDIUM 97 [+]          
1 27450U 02031A   16215.50868183  .00000124  00000-0  37083-4 0  9990
2 27450  86.3950  92.1453 0002146  89.4953 270.6489 14.34210635744556
IRIDIUM 98 [+]          
1 27451U 02031B   16215.45340140  .00000137  00000-0  41919-4 0  9990
2 27451  86.3999 155.4694 0002308  87.0953  50.9242 14.34213712745617
